IRIDIUM 124             
1 42810U 17039H   25113.04616860  .00000337  00000+0  94202-4 0  9991
2 42810  86.4441 106.0302 0002311  95.7718 264.3747 14.43278107414515
IRIDIUM 128             
1 42811U 17039J   25113.76081858  .00000144  00000+0  44399-4 0  9992
2 42811  86.4029 200.4047 0002378 107.1341 253.0115 14.34218303409864
IRIDIUM 121             
1 42812U 17039K   25113.71933795  .00000416  00000+0  14140-3 0  9996
2 42812  86.4016 168.9915 0002508  95.9284 264.2198 14.34220291409705
IRIDIUM 133             
1 42955U 17061A   25112.81577239  .00000022  00000+0  75118-6 0  9994
2 42955  86.4029 200.9063 0002184  98.8762 261.2681 14.34217871394528
IRIDIUM 100             
1 42956U 17061B   25113.85595741  .00000013  00000+0 -23350-5 0  9999
2 42956  86.4034 200.4008 0002042  99.5159 260.6267 14.34217667394672
IRIDIUM 122             
1 42957U 17061C   25113.68470725  .00000473  00000+0  16200-3 0  9998
2 42957  86.4033 200.4716 0002084  98.3634 261.7798 14.34218075394652
